[{"OBJECT_NAME":"GSAT0218 (GALILEO 22)","OBJECT_ID":"2017-079D","EPOCH":"2026-03-26T10:52:17.891904","MEAN_MOTION":1.70474511,"ECCENTRICITY":0.00022745,"INCLINATION":55.0993,"RA_OF_ASC_NODE":223.7765,"ARG_OF_PERICENTER":289.2872,"MEAN_ANOMALY":70.6427,"EPHEMERIS_TYPE":0,"CLASSIFICATION_TYPE":"U","NORAD_CAT_ID":43058,"ELEMENT_SET_NO":999,"REV_AT_EPOCH":5160,"BSTAR":0,"MEAN_MOTION_DOT":0,"MEAN_MOTION_DDOT":0},{"OBJECT_NAME":"GOES 17","OBJECT_ID":"2018-022A","EPOCH":"2026-03-29T04:03:01.466208","MEAN_MOTION":1.00271483,"ECCENTRICITY":0.0001516,"INCLINATION":0.7327,"RA_OF_ASC_NODE":86.9204,"ARG_OF_PERICENTER":239.4118,"MEAN_ANOMALY":191.4906,"EPHEMERIS_TYPE":0,"CLASSIFICATION_TYPE":"U","NORAD_CAT_ID":43226,"ELEMENT_SET_NO":999,"REV_AT_EPOCH":2962,"BSTAR":0,"MEAN_MOTION_DOT":-2.01e-6,"MEAN_MOTION_DDOT":0},{"OBJECT_NAME":"GSAT0221 (GALILEO 25)","OBJECT_ID":"2018-060A","EPOCH":"2026-03-27T12:42:48.068064","MEAN_MOTION":1.70475505,"ECCENTRICITY":0.00047982,"INCLINATION":57.1946,"RA_OF_ASC_NODE":343.9877,"ARG_OF_PERICENTER":314.1453,"MEAN_ANOMALY":45.8491,"EPHEMERIS_TYPE":0,"CLASSIFICATION_TYPE":"U","NORAD_CAT_ID":43564,"ELEMENT_SET_NO":999,"REV_AT_EPOCH":4777,"BSTAR":0,"MEAN_MOTION_DOT":-9.7e-7,"MEAN_MOTION_DDOT":0},{"OBJECT_NAME":"GSAT0222 (GALILEO 26)","OBJECT_ID":"2018-060B","EPOCH":"2026-03-27T17:58:54.205536","MEAN_MOTION":1.7047508,"ECCENTRICITY":0.00034237,"INCLINATION":57.1988,"RA_OF_ASC_NODE":343.9851,"ARG_OF_PERICENTER":288.405,"MEAN_ANOMALY":71.5917,"EPHEMERIS_TYPE":0,"CLASSIFICATION_TYPE":"U","NORAD_CAT_ID":43565,"ELEMENT_SET_NO":999,"REV_AT_EPOCH":4782,"BSTAR":0,"MEAN_MOTION_DOT":-9.7e-7,"MEAN_MOTION_DDOT":0},{"OBJECT_NAME":"GSAT0219 (GALILEO 23)","OBJECT_ID":"2018-060C","EPOCH":"2026-03-26T05:03:05.055552","MEAN_MOTION":1.70475357,"ECCENTRICITY":0.00047055,"INCLINATION":57.1986,"RA_OF_ASC_NODE":344.0284,"ARG_OF_PERICENTER":320.4446,"MEAN_ANOMALY":39.5555,"EPHEMERIS_TYPE":0,"CLASSIFICATION_TYPE":"U","NORAD_CAT_ID":43566,"ELEMENT_SET_NO":999,"REV_AT_EPOCH":4777,"BSTAR":0,"MEAN_MOTION_DOT":-9.4e-7,"MEAN_MOTION_DDOT":0},{"OBJECT_NAME":"GSAT0220 (GALILEO 24)","OBJECT_ID":"2018-060D","EPOCH":"2026-03-27T00:25:57.912960","MEAN_MOTION":1.70475173,"ECCENTRICITY":0.0004469,"INCLINATION":57.1973,"RA_OF_ASC_NODE":344.0063,"ARG_OF_PERICENTER":319.2855,"MEAN_ANOMALY":40.7149,"EPHEMERIS_TYPE":0,"CLASSIFICATION_TYPE":"U","NORAD_CAT_ID":43567,"ELEMENT_SET_NO":999,"REV_AT_EPOCH":4777,"BSTAR":0,"MEAN_MOTION_DOT":-9.6e-7,"MEAN_MOTION_DDOT":0},{"OBJECT_NAME":"BEIDOU-3 M13","OBJECT_ID":"2018-072A","EPOCH":"2026-03-28T10:55:59.749824","MEAN_MOTION":1.86230907,"ECCENTRICITY":0.00091231,"INCLINATION":56.556,"RA_OF_ASC_NODE":65.3217,"ARG_OF_PERICENTER":312.6672,"MEAN_ANOMALY":47.2493,"EPHEMERIS_TYPE":0,"CLASSIFICATION_TYPE":"U","NORAD_CAT_ID":43622,"ELEMENT_SET_NO":999,"REV_AT_EPOCH":5115,"BSTAR":0,"MEAN_MOTION_DOT":-3.0e-8,"MEAN_MOTION_DDOT":0},{"OBJECT_NAME":"BEIDOU-3 M14","OBJECT_ID":"2018-072B","EPOCH":"2026-03-28T07:42:14.827680","MEAN_MOTION":1.862309,"ECCENTRICITY":0.0006825,"INCLINATION":56.5577,"RA_OF_ASC_NODE":65.3203,"ARG_OF_PERICENTER":333.8606,"MEAN_ANOMALY":26.0987,"EPHEMERIS_TYPE":0,"CLASSIFICATION_TYPE":"U","NORAD_CAT_ID":43623,"ELEMENT_SET_NO":999,"REV_AT_EPOCH":5114,"BSTAR":0,"MEAN_MOTION_DOT":-2.0e-8,"MEAN_MOTION_DDOT":0},{"OBJECT_NAME":"GPS BIII-1","OBJECT_ID":"2018-109A","EPOCH":"2026-03-28T06:20:56.016672","MEAN_MOTION":2.00557717,"ECCENTRICITY":0.0037867,"INCLINATION":55.6315,"RA_OF_ASC_NODE":95.3771,"ARG_OF_PERICENTER":198.7638,"MEAN_ANOMALY":175.851,"EPHEMERIS_TYPE":0,"CLASSIFICATION_TYPE":"U","NORAD_CAT_ID":43873,"ELEMENT_SET_NO":999,"REV_AT_EPOCH":5345,"BSTAR":0,"MEAN_MOTION_DOT":4.5e-7,"MEAN_MOTION_DDOT":0},{"OBJECT_NAME":"METEOR-M2 2","OBJECT_ID":"2019-038A","EPOCH":"2026-03-29T05:36:26.300736","MEAN_MOTION":14.2434196,"ECCENTRICITY":2.94e-5,"INCLINATION":98.9111,"RA_OF_ASC_NODE":74.3582,"ARG_OF_PERICENTER":197.1278,"MEAN_ANOMALY":162.9891,"EPHEMERIS_TYPE":0,"CLASSIFICATION_TYPE":"U","NORAD_CAT_ID":44387,"ELEMENT_SET_NO":999,"REV_AT_EPOCH":34991,"BSTAR":0.00016827,"MEAN_MOTION_DOT":3.43e-6,"MEAN_MOTION_DDOT":0},{"OBJECT_NAME":"GPS BIII-2","OBJECT_ID":"2019-056A","EPOCH":"2026-03-27T15:53:36.359232","MEAN_MOTION":2.00568459,"ECCENTRICITY":0.0058566,"INCLINATION":55.6735,"RA_OF_ASC_NODE":334.3842,"ARG_OF_PERICENTER":197.7684,"MEAN_ANOMALY":3.1076,"EPHEMERIS_TYPE":0,"CLASSIFICATION_TYPE":"U","NORAD_CAT_ID":44506,"ELEMENT_SET_NO":999,"REV_AT_EPOCH":4843,"BSTAR":0,"MEAN_MOTION_DOT":-8.4e-7,"MEAN_MOTION_DDOT":0},{"OBJECT_NAME":"BEIDOU-3 M24","OBJECT_ID":"2019-061A","EPOCH":"2026-03-26T13:13:55.330176","MEAN_MOTION":1.86228792,"ECCENTRICITY":0.0008194,"INCLINATION":54.397,"RA_OF_ASC_NODE":185.5149,"ARG_OF_PERICENTER":15.0686,"MEAN_ANOMALY":344.9633,"EPHEMERIS_TYPE":0,"CLASSIFICATION_TYPE":"U","NORAD_CAT_ID":44542,"ELEMENT_SET_NO":999,"REV_AT_EPOCH":4425,"BSTAR":0,"MEAN_MOTION_DOT":-3.0e-7,"MEAN_MOTION_DDOT":0},{"OBJECT_NAME":"BEIDOU-3 M23","OBJECT_ID":"2019-061B","EPOCH":"2026-03-27T04:42:14.012928","MEAN_MOTION":1.86227116,"ECCENTRICITY":0.0004848,"INCLINATION":54.395,"RA_OF_ASC_NODE":185.4615,"ARG_OF_PERICENTER":1.0858,"MEAN_ANOMALY":343.2659,"EPHEMERIS_TYPE":0,"CLASSIFICATION_TYPE":"U","NORAD_CAT_ID":44543,"ELEMENT_SET_NO":999,"REV_AT_EPOCH":4426,"BSTAR":0,"MEAN_MOTION_DOT":-3.7e-7,"MEAN_MOTION_DDOT":0},{"OBJECT_NAME":"BEIDOU-3 M22","OBJECT_ID":"2019-078A","EPOCH":"2026-03-27T11:08:27.250656","MEAN_MOTION":1.86231892,"ECCENTRICITY":0.00074546,"INCLINATION":54.0095,"RA_OF_ASC_NODE":302.7034,"ARG_OF_PERICENTER":41.3303,"MEAN_ANOMALY":318.7622,"EPHEMERIS_TYPE":0,"CLASSIFICATION_TYPE":"U","NORAD_CAT_ID":44793,"ELEMENT_SET_NO":999,"REV_AT_EPOCH":4312,"BSTAR":0,"MEAN_MOTION_DOT":-3.1e-7,"MEAN_MOTION_DDOT":0},{"OBJECT_NAME":"BEIDOU-3 M21","OBJECT_ID":"2019-078B","EPOCH":"2026-03-26T12:43:42.292704","MEAN_MOTION":1.86227568,"ECCENTRICITY":0.00053802,"INCLINATION":53.9841,"RA_OF_ASC_NODE":302.6991,"ARG_OF_PERICENTER":37.5776,"MEAN_ANOMALY":322.4952,"EPHEMERIS_TYPE":0,"CLASSIFICATION_TYPE":"U","NORAD_CAT_ID":44794,"ELEMENT_SET_NO":999,"REV_AT_EPOCH":4311,"BSTAR":0,"MEAN_MOTION_DOT":-2.9e-7,"MEAN_MOTION_DDOT":0},{"OBJECT_NAME":"ELEKTRO-L 3","OBJECT_ID":"2019-095A","EPOCH":"2026-03-29T03:07:36.782976","MEAN_MOTION":1.00271593,"ECCENTRICITY":0.0001389,"INCLINATION":0.0575,"RA_OF_ASC_NODE":55.6955,"ARG_OF_PERICENTER":288.548,"MEAN_ANOMALY":325.1164,"EPHEMERIS_TYPE":0,"CLASSIFICATION_TYPE":"U","NORAD_CAT_ID":44903,"ELEMENT_SET_NO":999,"REV_AT_EPOCH":2290,"BSTAR":0,"MEAN_MOTION_DOT":-1.15e-6,"MEAN_MOTION_DDOT":0},{"OBJECT_NAME":"GPS BIII-3","OBJECT_ID":"2020-041A","EPOCH":"2026-03-28T16:57:19.643904","MEAN_MOTION":2.00560091,"ECCENTRICITY":0.00616586,"INCLINATION":56.6214,"RA_OF_ASC_NODE":32.0661,"ARG_OF_PERICENTER":205.253,"MEAN_ANOMALY":331.039,"EPHEMERIS_TYPE":0,"CLASSIFICATION_TYPE":"U","NORAD_CAT_ID":45854,"ELEMENT_SET_NO":999,"REV_AT_EPOCH":4242,"BSTAR":0,"MEAN_MOTION_DOT":-8.2e-7,"MEAN_MOTION_DDOT":0}]
